     2              NAVIGATION DATA                         RINEX VERSION / TYPE
CCRINEXN V1.6.0 UX  CDDIS               31-MAY-06 02:51     PGM / RUN BY / DATE 
IGS BROADCAST EPHEMERIS FILE                                COMMENT             
    0.6519E-08  0.2235E-07 -0.5960E-07 -0.1192E-06          ION ALPHA           
    0.8602E+05  0.9830E+05 -0.6554E+05 -0.5243E+06          ION BETA            
    0.000000000000E+00 0.710542735760E-14   319488     1377 DELTA-UTC: A0,A1,T,W
    14                                                      LEAP SECONDS        
                                                            END OF HEADER       
10 06  5 30  9 59 44.0 0.842120498419E-04 0.568434188608E-12 0.000000000000E+00
    0.138000000000E+03 0.993750000000E+02 0.409588489576E-08-0.108997257997E+01
    0.523589551449E-05 0.710249785334E-02 0.420399010181E-05 0.515362684441E+04
    0.208784000000E+06 0.139698386192E-06 0.137479261393E+01-0.465661287308E-07
    0.973669707606E+00 0.306125000000E+03 0.440358919265E+00-0.797890378194E-08
    0.503592405216E-10 0.100000000000E+01 0.137700000000E+04 0.000000000000E+00
    0.200000000000E+01 0.000000000000E+00-0.279396772385E-08 0.138000000000E+03
    0.208770000000E+06 0.000000000000E+00 0.000000000000E+00 0.000000000000E+00
13 06  5 30  9 59 44.0 0.656112097204E-04 0.284217094304E-11 0.000000000000E+00
    0.211000000000E+03-0.451875000000E+02 0.392766360295E-08-0.110010144878E+01
   -0.237114727497E-05 0.310389837250E-02 0.161118805408E-05 0.515377768135E+04
    0.208784000000E+06 0.149011611938E-07 0.242590282048E+01 0.124797224999E-06
    0.992009344577E+00 0.364375000000E+03 0.116009217603E+01-0.803569186168E-08
   -0.169649923743E-09 0.100000000000E+01 0.137700000000E+04 0.000000000000E+00
    0.200000000000E+01 0.000000000000E+00-0.111758708954E-07 0.211000000000E+03
    0.201618000000E+06 0.400000000000E+01 0.000000000000E+00 0.000000000000E+00
19 06  5 30  9 59 44.0-0.817654654384E-05 0.204636307899E-11 0.000000000000E+00
    0.180000000000E+03-0.243750000000E+01 0.496949271360E-08-0.890069138587E+00
   -0.217929482460E-06 0.350491330028E-02 0.662729144096E-05 0.515359792137E+04
    0.208784000000E+06-0.558793544769E-07-0.680818717141E+00-0.111758708954E-07
    0.958061923856E+00 0.253687500000E+03-0.128345543629E+01-0.804176354316E-08
   -0.183579075377E-09 0.100000000000E+01 0.137700000000E+04 0.000000000000E+00
    0.200000000000E+01 0.000000000000E+00-0.144354999065E-07 0.180000000000E+03
    0.205158000000E+06 0.400000000000E+01 0.000000000000E+00 0.000000000000E+00
20 06  5 30  9 59 44.0-0.261273235083E-04 0.568434188608E-12 0.000000000000E+00
    0.232000000000E+03 0.122000000000E+03 0.451590239118E-08 0.225408347242E+00
    0.631064176559E-05 0.297737121582E-02 0.505894422531E-05 0.515375882340E+04
    0.208784000000E+06-0.298023223877E-07 0.134360069596E+01 0.149011611938E-07
    0.957294550178E+00 0.278125000000E+03 0.136404435877E+01-0.821962809479E-08
    0.414302971667E-10 0.100000000000E+01 0.137700000000E+04 0.000000000000E+00
    0.200000000000E+01 0.000000000000E+00-0.698491930962E-08 0.232000000000E+03
    0.201618000000E+06 0.400000000000E+01 0.000000000000E+00 0.000000000000E+00
26 06  5 30  9 59 44.0-0.130850356072E-03-0.118234311230E-10 0.000000000000E+00
    0.210000000000E+02-0.631250000000E+02 0.378908640209E-08-0.281714210596E+01
   -0.321306288242E-05 0.174409842584E-01 0.160932540894E-05 0.515368804359E+04
    0.208784000000E+06 0.111758708954E-06 0.242668617361E+01-0.238418579102E-06
    0.990160075684E+00 0.363593750000E+03 0.787091214583E+00-0.773139347214E-08
   -0.789318592573E-10 0.100000000000E+01 0.137700000000E+04 0.000000000000E+00
    0.200000000000E+01 0.000000000000E+00-0.605359673500E-08 0.210000000000E+02
    0.201618000000E+06 0.400000000000E+01 0.000000000000E+00 0.000000000000E+00
30 06  5 30  9 59 44.0 0.267300289124E-03 0.127329258248E-10 0.000000000000E+00
    0.400000000000E+02-0.343750000000E+01 0.501770891503E-08-0.947676283664E-01
   -0.329688191414E-06 0.888851215132E-02 0.832416117191E-05 0.515373851967E+04
    0.208784000000E+06-0.122934579849E-06-0.182408922973E+01 0.115483999252E-06
    0.944189810484E+00 0.214656250000E+03 0.129050173629E+01-0.823784329640E-08
    0.589667425999E-09 0.100000000000E+01 0.137700000000E+04 0.000000000000E+00
    0.200000000000E+01 0.000000000000E+00-0.838190317154E-08 0.400000000000E+02
    0.202968000000E+06 0.400000000000E+01 0.000000000000E+00 0.000000000000E+00
 1 06  5 30 10  0  0.0 0.561466440558E-04 0.250111042988E-11 0.000000000000E+00
    0.650000000000E+02-0.583125000000E+02 0.388444743038E-08-0.283598441329E+01
   -0.291503965855E-05 0.616842217278E-02 0.141374766827E-05 0.515369256782E+04
    0.208800000000E+06-0.279396772385E-07 0.244028168867E+01-0.279396772385E-07
    0.987836338571E+00 0.368437500000E+03-0.173224777254E+01-0.787889931075E-08
   -0.149291926044E-09 0.100000000000E+01 0.137700000000E+04 0.000000000000E+00
    0.200000000000E+01 0.000000000000E+00-0.325962901115E-08 0.321000000000E+03
    0.202518000000E+06 0.400000000000E+01 0.000000000000E+00 0.000000000000E+00
 2 06  5 30 10  0  0.0 0.956933945417E-06 0.284217094304E-11 0.000000000000E+00
    0.134000000000E+03 0.593125000000E+02 0.462162108050E-08-0.146661135201E+01
    0.315718352795E-05 0.906522187870E-02 0.101719051600E-04 0.515369133186E+04
    0.208800000000E+06-0.242143869400E-06 0.303594633044E+00 0.558793544769E-07
    0.950607942236E+00 0.180187500000E+03 0.206957921876E+01-0.797926093968E-08
   -0.398945189097E-09 0.100000000000E+01 0.137700000000E+04 0.000000000000E+00
    0.200000000000E+01 0.000000000000E+00-0.172294676304E-07 0.134000000000E+03
    0.202128000000E+06 0.400000000000E+01 0.000000000000E+00 0.000000000000E+00
 3 06  5 30 10  0  0.0 0.102710444480E-03 0.306954461848E-11 0.000000000000E+00
    0.139000000000E+03-0.643750000000E+01 0.569059417895E-08-0.224771665545E+01
   -0.536441802978E-06 0.805745623075E-02 0.576302409172E-05 0.515367532349E+04
    0.208800000000E+06 0.912696123123E-07-0.832359584855E+00-0.108033418655E-06
    0.926019719867E+00 0.248937500000E+03 0.659782614937E+00-0.832356099544E-08
   -0.100004165575E-10 0.100000000000E+01 0.137700000000E+04 0.000000000000E+00
    0.280000000000E+01 0.000000000000E+00-0.419095158577E-08 0.651000000000E+03
    0.201618000000E+06 0.400000000000E+01 0.000000000000E+00 0.000000000000E+00
 4 06  5 30 10  0  0.0 0.242261681706E-03 0.886757334229E-11 0.000000000000E+00
    0.201000000000E+03 0.513750000000E+02 0.467733768703E-08 0.944996241149E+00
    0.290572643280E-05 0.733278249390E-02 0.965408980846E-05 0.515359969521E+04
    0.208800000000E+06 0.111758708954E-07 0.323259341712E+00 0.126659870148E-06
    0.950139050659E+00 0.185093750000E+03 0.156400933195E+00-0.794890253227E-08
   -0.499663670140E-09 0.100000000000E+01 0.137700000000E+04 0.000000000000E+00
    0.280000000000E+01 0.000000000000E+00-0.605359673500E-08 0.713000000000E+03
    0.201618000000E+06 0.400000000000E+01 0.000000000000E+00 0.000000000000E+00
 5 06  5 30 10  0  0.0 0.628703273833E-04 0.486579665448E-10 0.000000000000E+00
    0.129000000000E+03-0.440625000000E+01 0.509628383938E-08 0.692122535922E+00
   -0.439584255218E-06 0.697006657720E-02 0.838376581669E-05 0.515358538628E+04
    0.208800000000E+06-0.121071934700E-06-0.187064728957E+01 0.242143869400E-07
    0.937632467447E+00 0.205937500000E+03 0.104353156822E+01-0.824784329723E-08
    0.515735787410E-09 0.100000000000E+01 0.137700000000E+04 0.000000000000E+00
    0.200000000000E+01 0.000000000000E+00-0.419095158577E-08 0.129000000000E+03
    0.201618000000E+06 0.400000000000E+01 0.000000000000E+00 0.000000000000E+00
 6 06  5 30 10  0  0.0 0.545645132661E-03 0.146656020661E-10 0.000000000000E+00
    0.120000000000E+02-0.100625000000E+02 0.554951684606E-08 0.191719283121E+01
   -0.573694705963E-06 0.612968555652E-02 0.601634383202E-05 0.515376041222E+04
    0.208800000000E+06 0.372529029846E-08-0.773766712409E+00-0.145286321640E-06
    0.933589541192E+00 0.252062500000E+03-0.182560909336E+01-0.829213142595E-08
   -0.169649919113E-09 0.100000000000E+01 0.137700000000E+04 0.000000000000E+00
    0.200000000000E+01 0.000000000000E+00-0.512227416039E-08 0.268000000000E+03
    0.203238000000E+06 0.400000000000E+01 0.000000000000E+00 0.000000000000E+00
 7 06  5 30 10  0  0.0 0.539683736861E-03 0.159161572810E-11 0.000000000000E+00
    0.167000000000E+03-0.721875000000E+01 0.559094717111E-08 0.986632950937E+00
   -0.437721610069E-06 0.106655613054E-01 0.639818608761E-05 0.515381271744E+04
    0.208800000000E+06-0.163912773132E-06-0.799853436878E+00-0.353902578354E-07
    0.935105327667E+00 0.247968750000E+03-0.182549173515E+01-0.849213944598E-08
   -0.203222750758E-09 0.100000000000E+01 0.137700000000E+04 0.000000000000E+00
    0.200000000000E+01 0.000000000000E+00-0.186264514923E-08 0.423000000000E+03
    0.201618000000E+06 0.400000000000E+01 0.000000000000E+00 0.000000000000E+00
 8 06  5 30 10  0  0.0-0.673341564834E-04-0.113686837722E-11 0.000000000000E+00
    0.500000000000E+02-0.106500000000E+03 0.388873340993E-08 0.196883960038E+01
   -0.541098415852E-05 0.952533062082E-02 0.817514955998E-05 0.515363066292E+04
    0.208800000000E+06 0.558793544769E-08-0.279438257215E+01 0.115483999252E-06
    0.973438971778E+00 0.229437500000E+03 0.265507929652E+01-0.755210028958E-08
    0.446447167745E-10 0.100000000000E+01 0.137700000000E+04 0.000000000000E+00
    0.280000000000E+01 0.000000000000E+00-0.372529029846E-08 0.306000000000E+03
    0.201630000000E+06 0.000000000000E+00 0.000000000000E+00 0.000000000000E+00
